STARLINK-2428
1 28099C 21027H   21325.15038795  .00001278  00000-0  85649-4 0  3250
2 28099  53.0557  17.5467 0001109  60.1225  79.6464 15.06402234    18
